H1 CPF  1  DGF 2022 08 31 11  7431 larets     NONE      
H2   304206 5557    27944 2022 08 31 00 00 00 2022 09 07 00 00 00    30 1 1  0 0 0
H5  0.0650
H9
10 0 59822      0.000000  0      -3136976.111      -2956084.740       5582904.459
10 0 59822     30.000000  0      -3304753.809      -3028175.521       5446476.839
10 0 59822     60.000000  0      -3469485.593      -3096466.420       5304482.453
10 0 59822     90.000000  0      -3630987.676      -3160901.967       5157066.586
10 0 59822    120.000000  0      -3789079.332      -3221431.411       5004380.060
10 0 59822    150.000000  0      -3943583.103      -3278008.757       4846579.085
10 0 59822    180.000000  0      -4094325.003      -3330592.802       4683825.096
10 0 59822    210.000000  0      -4241134.715      -3379147.161       4516284.592
10 0 59822    240.000000  0      -4383845.789      -3423640.288       4344128.963
10 0 59822    270.000000  0      -4522295.833      -3464045.493       4167534.315
10 0 59822    300.000000  0      -4656326.702      -3500340.948       3986681.290
10 0 59822    330.000000  0      -4785784.682      -3532509.699       3801754.885
10 0 59822    360.000000  0      -4910520.670      -3560539.656       3612944.258
10 0 59822    390.000000  0      -5030390.348      -3584423.594       3420442.536
10 0 59822    420.000000  0      -5145254.363      -3604159.135       3224446.620
10 0 59822    450.000000  0      -5254978.483      -3619748.736       3025156.974
10 0 59822    480.000000  0      -5359433.769      -3631199.661       2822777.421
10 0 59822    510.000000  0      -5458496.720      -3638523.953       2617514.927
10 0 59822    540.000000  0      -5552049.429      -3641738.396       2409579.384
10 0 59822    570.000000  0      -5639979.717      -3640864.477       2199183.395
10 0 59822    600.000000  0      -5722181.276      -3635928.332       1986542.044
10 0 59822    630.000000  0      -5798553.792      -3626960.701       1771872.677
10 0 59822    660.000000  0      -5869003.075      -3613996.860       1555394.673
10 0 59822    690.000000  0      -5933441.165      -3597076.563       1337329.212
10 0 59822    720.000000  0      -5991786.449      -3576243.968       1117899.045
10 0 59822    750.000000  0      -6043963.757      -3551547.564        897328.263
10 0 59822    780.000000  0      -6089904.458      -3523040.091        675842.061
10 0 59822    810.000000  0      -6129546.544      -3490778.459        453666.502
10 0 59822    840.000000  0      -6162834.715      -3454823.653        231028.281
10 0 59822    870.000000  0      -6189720.445      -3415240.644          8154.485
10 0 59822    900.000000  0      -6210162.048      -3372098.290       -214727.642
10 0 59822    930.000000  0      -6224124.733      -3325469.228       -437390.941
10 0 59822    960.000000  0      -6231580.652      -3275429.768       -659608.575
10 0 59822    990.000000  0      -6232508.931      -3222059.784       -881154.267
10 0 59822   1020.000000  0      -6226895.707      -3165442.589      -1101802.537
10 0 59822   1050.000000  0      -6214734.142      -3105664.822      -1321328.932
10 0 59822   1080.000000  0      -6196024.439      -3042816.322      -1539510.258
10 0 59822   1110.000000  0      -6170773.846      -2976990.000      -1756124.812
10 0 59822   1140.000000  0      -6138996.651      -2908281.713      -1970952.602
10 0 59822   1170.000000  0      -6100714.180      -2836790.130      -2183775.578
10 0 59822   1200.000000  0      -6055954.772      -2762616.597      -2394377.849
10 0 59822   1230.000000  0      -6004753.755      -2685865.000      -2602545.908
10 0 59822   1260.000000  0      -5947153.414      -2606641.626      -2808068.846
10 0 59822   1290.000000  0      -5883202.944      -2525055.020      -3010738.566
10 0 59822   1320.000000  0      -5812958.404      -2441215.841      -3210349.988
10 0 59822   1350.000000  0      -5736482.657      -2355236.716      -3406701.258
10 0 59822   1380.000000  0      -5653845.309      -2267232.095      -3599593.948
10 0 59822   1410.000000  0      -5565122.632      -2177318.100      -3788833.248
10 0 59822   1440.000000  0      -5470397.491      -2085612.379      -3974228.163
10 0 59822   1470.000000  0      -5369759.254      -1992233.954      -4155591.698
10 0 59822   1500.000000  0      -5263303.704      -1897303.071      -4332741.040
10 0 59822   1530.000000  0      -5151132.937      -1800941.052      -4505497.741
10 0 59822   1560.000000  0      -5033355.255      -1703270.139      -4673687.886
10 0 59822   1590.000000  0      -4910085.057      -1604413.347      -4837142.266
10 0 59822   1620.000000  0      -4781442.717      -1504494.307      -4995696.536
10 0 59822   1650.000000  0      -4647554.457      -1403637.119      -5149191.377
10 0 59822   1680.000000  0      -4508552.217      -1301966.200      -5297472.639
10 0 59822   1710.000000  0      -4364573.521      -1199606.133      -5440391.492
10 0 59822   1740.000000  0      -4215761.331      -1096681.519      -5577804.562
10 0 59822   1770.000000  0      -4062263.902       -993316.834      -5709574.063
10 0 59822   1800.000000  0      -3904234.633       -889636.274      -5835567.930
10 0 59822   1830.000000  0      -3741831.905       -785763.619      -5955659.938
10 0 59822   1860.000000  0      -3575218.918       -681822.079      -6069729.817
10 0 59822   1890.000000  0      -3404563.534       -577934.164      -6177663.361
10 0 59822   1920.000000  0      -3230038.094       -474221.533      -6279352.535
10 0 59822   1950.000000  0      -3051819.257       -370804.865      -6374695.568
10 0 59822   1980.000000  0      -2870087.811       -267803.719      -6463597.054
10 0 59822   2010.000000  0      -2685028.494       -165336.403      -6545968.031
10 0 59822   2040.000000  0      -2496829.806        -63519.842      -6621726.066
10 0 59822   2070.000000  0      -2305683.815         37530.550      -6690795.324
10 0 59822   2100.000000  0      -2111785.967        137700.995      -6753106.636
10 0 59822   2130.000000  0      -1915334.895        236879.472      -6808597.557
10 0 59822   2160.000000  0      -1716532.215        334955.838      -6857212.429
10 0 59822   2190.000000  0      -1515582.329        431821.949      -6898902.430
10 0 59822   2220.000000  0      -1312692.221        527371.773      -6933625.618
10 0 59822   2250.000000  0      -1108071.244        621501.506      -6961346.971
10 0 59822   2280.000000  0       -901930.915        714109.681      -6982038.413
10 0 59822   2310.000000  0       -694484.701        805097.272      -6995678.846
10 0 59822   2340.000000  0       -485947.810        894367.797      -7002254.160
10 0 59822   2370.000000  0       -276536.973        981827.416      -7001757.258
10 0 59822   2400.000000  0        -66470.230       1067385.022      -6994188.057
10 0 59822   2430.000000  0        144033.286       1150952.340      -6979553.504
10 0 59822   2460.000000  0        354753.574       1232444.008      -6957867.572
10 0 59822   2490.000000  0        565469.992       1311777.673      -6929151.257
10 0 59822   2520.000000  0        775961.488       1388874.071      -6893432.559
10 0 59822   2550.000000  0        986006.822       1463657.103      -6850746.453
10 0 59822   2580.000000  0       1195384.796       1536053.917      -6801134.861
10 0 59822   2610.000000  0       1403874.472       1605994.969      -6744646.617
10 0 59822   2640.000000  0       1611255.405       1673414.095      -6681337.429
10 0 59822   2670.000000  0       1817307.869       1738248.575      -6611269.838
10 0 59822   2700.000000  0       2021813.091       1800439.189      -6534513.158
10 0 59822   2730.000000  0       2224553.484       1859930.276      -6451143.422
10 0 59822   2760.000000  0       2425312.869       1916669.781      -6361243.307
10 0 59822   2790.000000  0       2623876.707       1970609.302      -6264902.060
10 0 59822   2820.000000  0       2820032.317       2021704.129      -6162215.428
10 0 59822   2850.000000  0       3013569.108       2069913.288      -6053285.568
10 0 59822   2880.000000  0       3204278.798       2115199.566      -5938220.963
10 0 59822   2910.000000  0       3391955.645       2157529.549      -5817136.323
10 0 59822   2940.000000  0       3576396.668       2196873.643      -5690152.488
10 0 59822   2970.000000  0       3757401.870       2233206.095      -5557396.317
10 0 59822   3000.000000  0       3934774.458       2266505.010      -5419000.572
10 0 59822   3030.000000  0       4108321.065       2296752.364      -5275103.797
10 0 59822   3060.000000  0       4277851.963       2323934.013      -5125850.193
10 0 59822   3090.000000  0       4443181.280       2348039.692      -4971389.477
10 0 59822   3120.000000  0       4604127.206       2369063.013      -4811876.745
10 0 59822   3150.000000  0       4760512.201       2387001.459      -4647472.323
10 0 59822   3180.000000  0       4912163.197       2401856.372      -4478341.617
10 0 59822   3210.000000  0       5058911.797       2413632.940      -4304654.958
10 0 59822   3240.000000  0       5200594.476       2422340.173      -4126587.431
10 0 59822   3270.000000  0       5337052.762       2427990.877      -3944318.711
10 0 59822   3300.000000  0       5468133.427       2430601.626      -3758032.887
10 0 59822   3330.000000  0       5593688.668       2430192.727      -3567918.287
10 0 59822   3360.000000  0       5713576.284       2426788.181      -3374167.297
10 0 59822   3390.000000  0       5827659.860       2420415.640      -3176976.166
10 0 59822   3420.000000  0       5935808.927       2411106.362      -2976544.809
10 0 59822   3450.000000  0       6037899.126       2398895.149      -2773076.603
10 0 59822   3480.000000  0       6133812.356       2383820.302      -2566778.183
10 0 59822   3510.000000  0       6223436.926       2365923.546      -2357859.230
10 0 59822   3540.000000  0       6306667.689       2345249.977      -2146532.257
10 0 59822   3570.000000  0       6383406.181       2321847.981      -1933012.396
99
